OBJECT_NAME,OBJECT_ID,EPOCH,MEAN_MOTION,ECCENTRICITY,INCLINATION,RA_OF_ASC_NODE,ARG_OF_PERICENTER,MEAN_ANOMALY,EPHEMERIS_TYPE,CLASSIFICATION_TYPE,NORAD_CAT_ID,ELEMENT_SET_NO,REV_AT_EPOCH,BSTAR,MEAN_MOTION_DOT,MEAN_MOTION_DDOT
STARLINK-37491,2026-111U,2026-06-06T04:00:03.998880,15.78031716,.0000912,53.1594,206.7924,95.6282,81.9932,0,U,69166,999,377,-.76278E-4,-.13875E-3,0
STARLINK-37474,2026-111V,2026-06-06T04:00:03.998880,15.78024834,.0000916,53.1597,206.7624,91.3955,100.7474,0,U,69167,999,377,-.3042E-4,-.5938E-4,0
STARLINK-37469,2026-111W,2026-06-06T04:00:03.998880,15.77742761,.0001198,53.1593,206.7317,87.8580,119.3251,0,U,69168,999,377,-.15945E-1,-.2358906E-1,0
STARLINK-37515,2026-111X,2026-06-06T04:00:03.998880,15.78023605,.0001483,53.1600,206.7433,87.7157,113.7428,0,U,69169,999,377,.10224E-4,.1105E-4,0
STARLINK-37437,2026-111Y,2026-06-06T00:00:02.998944,15.80921023,.000102,53.1584,207.5454,89.1311,259.1749,0,U,69170,999,374,-.54573E-3,-.107317E-2,0
STARLINK-37392,2026-111Z,2026-06-06T00:00:02.998944,15.80180237,.000058,53.1590,207.4977,115.8313,255.2446,0,U,69171,999,374,-.14098E-1,-.2335403E-1,0
STARLINK-37472,2026-111AA,2026-06-06T04:00:03.998880,15.80846673,.0001124,53.1588,206.6533,74.7492,169.9025,0,U,69172,999,377,-.87838E-4,-.17978E-3,0
STARLINK-37461,2026-111AB,2026-06-06T00:00:02.998944,15.79111324,.0000854,53.1590,207.5371,81.4834,270.5775,0,U,69173,999,374,-.15094E-1,-.2373953E-1,0
STARLINK-37333,2026-111AC,2026-06-06T04:00:03.998880,15.78053612,.000122,53.1593,206.7241,112.1913,98.4409,0,U,69174,999,377,-.2837E-3,-.49637E-3,0
STARLINK-37385,2026-111AD,2026-06-06T00:00:02.998944,15.79561331,.0000302,53.1586,207.5235,65.2164,293.4565,0,U,69175,999,374,-.14437E-1,-.2325356E-1,0
STARLINK-37414,2026-111AE,2026-06-06T04:00:03.998880,15.78587516,.0001588,53.1593,206.6731,91.6144,143.5420,0,U,69176,999,377,-.48193E-2,-.783531E-2,0
STARLINK-37380,2026-114A,2026-06-06T04:00:03.998880,15.78054139,.0001054,53.1591,257.5089,97.1904,75.8133,0,U,69182,999,304,-.99669E-4,-.17936E-3,0
STARLINK-37089,2026-114B,2026-06-06T04:00:03.998880,15.78083684,.0000631,53.1593,257.4981,50.7419,127.5493,0,U,69183,999,304,-.41167E-3,-.71636E-3,0
STARLINK-37428,2026-114C,2026-06-06T04:00:03.998880,15.78014068,.0000576,53.1590,257.4820,104.0808,82.2342,0,U,69184,999,304,.20163E-3,.34418E-3,0
STARLINK-37237,2026-114D,2026-06-06T04:00:03.998880,15.77997421,.0001176,53.1590,257.4491,56.5528,145.4022,0,U,69185,999,304,.51949E-3,.90252E-3,0
STARLINK-37365,2026-114E,2026-06-06T04:00:03.998880,15.78013503,.0001038,53.1591,257.4526,90.9624,109.2165,0,U,69186,999,304,.22846E-3,.39106E-3,0
STARLINK-37209,2026-114F,2026-06-06T04:00:03.998880,15.78036737,.0001101,53.1589,257.4440,71.7592,132.8020,0,U,69187,999,304,.22086E-4,.3165E-4,0
STARLINK-37359,2026-114G,2026-06-05T22:00:01.999584,15.78037930,.00006158,53.1590,258.6877,29.3578,196.5111,0,U,69188,999,300,.15222844E-4,.1975E-4,0
STARLINK-37440,2026-114H,2026-06-06T04:00:03.998880,15.85872534,.0000803,53.1561,257.0909,79.6146,294.9632,0,U,69189,999,304,-.64846E-2,-.141357E-1,0
STARLINK-37282,2026-114J,2026-06-05T22:00:01.999584,15.80925616,.00009198,53.1587,258.6592,82.2679,157.0890,0,U,69190,999,300,-.3307783E-3,-.65646E-3,0
STARLINK-37422,2026-114K,2026-06-05T22:00:01.999584,15.80905027,.00012344,53.1587,258.6395,74.6484,174.4988,0,U,69191,999,300,-.30103165E-3,-.59792E-3,0
STARLINK-37424,2026-114L,2026-06-05T22:00:01.999584,15.80945314,.00010076,53.1587,258.6511,77.7458,165.8705,0,U,69192,999,300,-.44808522E-3,-.88529E-3,0
STARLINK-36666,2026-114M,2026-06-05T22:00:01.999584,15.80948047,.00009403,53.1587,258.6423,75.1913,172.7050,0,U,69193,999,300,-.60084082E-3,-.118084E-2,0
STARLINK-37355,2026-114N,2026-06-05T22:00:01.999584,15.80893074,.00011607,53.1588,258.6335,77.2098,174.9418,0,U,69194,999,300,-.13479648E-3,-.27244E-3,0
STARLINK-37166,2026-114P,2026-06-05T22:00:01.999584,15.80904296,.00012339,53.1588,258.6154,80.4250,180.2759,0,U,69195,999,300,-.33163897E-3,-.65753E-3,0
