STARLINK-37491          
1 69166U 26111U   26157.16671295 -.00013875  00000+0 -76278-4 0  9996
2 69166  53.1594 206.7924 0000912  95.6282  81.9932 15.78031716  3779
STARLINK-37474          
1 69167U 26111V   26157.16671295 -.00005938  00000+0 -30420-4 0  9997
2 69167  53.1597 206.7624 0000916  91.3955 100.7474 15.78024834  3778
STARLINK-37469          
1 69168U 26111W   26157.16671295 -.02358906  00000+0 -15945-1 0  9998
2 69168  53.1593 206.7317 0001198  87.8580 119.3251 15.77742761  3775
STARLINK-37515          
1 69169U 26111X   26157.16671295  .00001105  00000+0  10224-4 0  9999
2 69169  53.1600 206.7433 0001483  87.7157 113.7428 15.78023605  3774
STARLINK-37437          
1 69170U 26111Y   26157.00003471 -.00107317  00000+0 -54573-3 0  9997
2 69170  53.1584 207.5454 0001020  89.1311 259.1749 15.80921023  3746
STARLINK-37392          
1 69171U 26111Z   26157.00003471 -.02335403  00000+0 -14098-1 0  9995
2 69171  53.1590 207.4977 0000580 115.8313 255.2446 15.80180237  3747
STARLINK-37472          
1 69172U 26111AA  26157.16671295 -.00017978  00000+0 -87838-4 0  9995
2 69172  53.1588 206.6533 0001124  74.7492 169.9025 15.80846673  3770
STARLINK-37461          
1 69173U 26111AB  26157.00003471 -.02373953  00000+0 -15094-1 0  9996
2 69173  53.1590 207.5371 0000854  81.4834 270.5775 15.79111324  3742
STARLINK-37333          
1 69174U 26111AC  26157.16671295 -.00049637  00000+0 -28370-3 0  9999
2 69174  53.1593 206.7241 0001220 112.1913  98.4409 15.78053612  3779
STARLINK-37385          
1 69175U 26111AD  26157.00003471 -.02325356  00000+0 -14437-1 0  9992
2 69175  53.1586 207.5235 0000302  65.2164 293.4565 15.79561331  3740
STARLINK-37414          
1 69176U 26111AE  26157.16671295 -.00783531  00000+0 -48193-2 0  9993
2 69176  53.1593 206.6731 0001588  91.6144 143.5420 15.78587516  3778
STARLINK-37380          
1 69182U 26114A   26157.16671295 -.00017936  00000+0 -99669-4 0  9998
2 69182  53.1591 257.5089 0001054  97.1904  75.8133 15.78054139  3045
STARLINK-37089          
1 69183U 26114B   26157.16671295 -.00071636  00000+0 -41167-3 0  9995
2 69183  53.1593 257.4981 0000631  50.7419 127.5493 15.78083684  3045
STARLINK-37428          
1 69184U 26114C   26157.16671295  .00034418  00000+0  20163-3 0  9994
2 69184  53.1590 257.4820 0000576 104.0808  82.2342 15.78014068  3048
STARLINK-37237          
1 69185U 26114D   26157.16671295  .00090252  00000+0  51949-3 0  9999
2 69185  53.1590 257.4491 0001176  56.5528 145.4022 15.77997421  3049
STARLINK-37365          
1 69186U 26114E   26157.16671295  .00039106  00000+0  22846-3 0  9995
2 69186  53.1591 257.4526 0001038  90.9624 109.2165 15.78013503  3043
STARLINK-37209          
1 69187U 26114F   26157.16671295  .00003165  00000+0  22086-4 0  9999
2 69187  53.1589 257.4440 0001101  71.7592 132.8020 15.78036737  3044
STARLINK-37359          
1 69188U 26114G   26156.91668981  .00001975  00000+0  15223-4 0  9992
2 69188  53.1590 258.6877 0000615  29.3578 196.5111 15.78037930  3006
STARLINK-37440          
1 69189U 26114H   26157.16671295 -.01413570  00000+0 -64846-2 0  9997
2 69189  53.1561 257.0909 0000803  79.6146 294.9632 15.85872534  3042
STARLINK-37282          
1 69190U 26114J   26156.91668981 -.00065646  00000+0 -33078-3 0  9999
2 69190  53.1587 258.6592 0000919  82.2679 157.0890 15.80925616  3002
STARLINK-37422          
1 69191U 26114K   26156.91668981 -.00059792  00000+0 -30103-3 0  9991
2 69191  53.1587 258.6395 0001234  74.6484 174.4988 15.80905027  3009
STARLINK-37424          
1 69192U 26114L   26156.91668981 -.00088529  00000+0 -44809-3 0  9990
2 69192  53.1587 258.6511 0001007  77.7458 165.8705 15.80945314  3007
STARLINK-36666          
1 69193U 26114M   26156.91668981 -.00118084  00000+0 -60084-3 0  9994
2 69193  53.1587 258.6423 0000940  75.1913 172.7050 15.80948047  3009
STARLINK-37355          
1 69194U 26114N   26156.91668981 -.00027244  00000+0 -13480-3 0  9990
2 69194  53.1588 258.6335 0001160  77.2098 174.9418 15.80893074  3006
STARLINK-37166          
1 69195U 26114P   26156.91668981 -.00065753  00000+0 -33164-3 0  9999
2 69195  53.1588 258.6154 0001233  80.4250 180.2759 15.80904296  3000
